NORAD_CAT_ID,OBJECT_NAME,OBJECT_TYPE,EPOCH,MEAN_MOTION,ECCENTRICITY,INCLINATION,RA_OF_ASC_NODE,ARG_OF_PERICENTER,MEAN_ANOMALY,BSTAR,MEAN_MOTION_DOT,MEAN_MOTION_DDOT,TLE_LINE0,TLE_LINE1,TLE_LINE2,SEMIMAJOR_AXIS,PERIOD,APOGEE,PERIGEE,DECAYED
51779.0,STARLINK-3611,PAYLOAD,2023-01-13 12:48:57,15.08839745,0.0002376,53.2147,106.8705,43.1258,316.992,0.00031044,4.656e-05,0.0,0 STARLINK-3611,1 51779U 22017M   23013.53399947  .00004656  00000-0  31044-3 0  9995,2 51779  53.2147 106.8705 0002376  43.1258 316.9920 15.08839745 48788,6917.880999999999,95.438,541.39,538.102,0.0
51779.0,STARLINK-3611,PAYLOAD,2023-01-13 15:59:43,15.08845279,0.0002275999999999,53.2146,106.2752,45.4647,314.653,0.0002795,4.163e-05,0.0,0 STARLINK-3611,1 51779U 22017M   23013.66647632  .00004163  00000-0  27950-3 0  9990,2 51779  53.2146 106.2752 0002276  45.4647 314.6530 15.08845279 50299,6917.8640000000005,95.437,541.304,538.155,0.0
51779.0,STARLINK-3611,PAYLOAD,2023-01-14 06:18:12,15.0883418,0.0001923,53.2144,103.5956,51.4467,308.6697,8.873e-05,1.124e-05,0.0,0 STARLINK-3611,1 51779U 22017M   23014.26264340  .00001124  00000-0  88730-4 0  9996,2 51779  53.2144 103.5956 0001923  51.4467 308.6697 15.08834180 50384,6917.898,95.438,541.0930000000001,538.433,0.0
51779.0,STARLINK-3611,PAYLOAD,2023-01-14 12:39:44,15.08847922,0.0002418,53.2142,102.4126,43.9923,316.1261,0.00029567,4.422e-05,0.0,0 STARLINK-3611,1 51779U 22017M   23014.52759870  .00004422  00000-0  29567-3 0  9998,2 51779  53.2142 102.4126 0002418  43.9923 316.1261 15.08847922 50426,6917.856,95.437,541.394,538.048,0.0
51779.0,STARLINK-3611,PAYLOAD,2023-01-14 22:12:03,15.08839111,0.0002215,53.2147,100.6254,42.95,317.1664,0.00017167,2.445e-05,0.0,0 STARLINK-3611,1 51779U 22017M   23014.92504171  .00002445  00000-0  17167-3 0  9990,2 51779  53.2147 100.6254 0002215  42.9500 317.1664 15.08839111 50483,6917.883000000001,95.438,541.28,538.216,0.0
51779.0,STARLINK-3611,PAYLOAD,2023-01-15 02:58:13,15.088308499999998,0.0002236,53.2132,99.7383,63.8694,296.2527,-1.7874000000000002e-05,-5.73e-06,0.0,0 STARLINK-3611,1 51779U 22017M   23015.12376722 -.00000573  00000-0 -17874-4 0  9990,2 51779  53.2132  99.7383 0002236  63.8694 296.2527 15.08830850 50517,6917.908,95.438,541.32,538.227,0.0
51779.0,STARLINK-3611,PAYLOAD,2023-01-15 12:30:32,15.08836473,0.0002051,53.2156,97.9512,47.0406,313.0758,0.00012444,1.693e-05,0.0,0 STARLINK-3611,1 51779U 22017M   23015.52120697  .00001693  00000-0  12444-3 0  9991,2 51779  53.2156  97.9512 0002051  47.0406 313.0758 15.08836473 49088,6917.891,95.438,541.175,538.337,0.0
51779.0,STARLINK-3611,PAYLOAD,2023-01-15 15:41:18,15.08848758,0.0002131999999999,53.2135,97.3563,60.9154,299.2051,0.00043182,6.593e-05,0.0,0 STARLINK-3611,1 51779U 22017M   23015.65368300  .00006593  00000-0  43182-3 0  9997,2 51779  53.2135  97.3563 0002132  60.9154 299.2051 15.08848758 50597,6917.854,95.437,541.194,538.244,0.0
51779.0,STARLINK-3611,PAYLOAD,2023-01-15 22:02:51,15.08846777,0.0002004,53.2142,96.167,57.5085,302.61,0.00063509,9.836e-05,0.0,0 STARLINK-3611,1 51779U 22017M   23015.91864663  .00009836  00000-0  63509-3 0  9997,2 51779  53.2142  96.1670 0002004  57.5085 302.6100 15.08846777 49146,6917.86,95.437,541.111,538.3380000000001,0.0
51779.0,STARLINK-3611,PAYLOAD,2023-01-16 12:21:18,15.08885096,0.0001728,53.2144,93.4911,63.9442,296.1728,0.0023654,0.00037605,0.0,0 STARLINK-3611,1 51779U 22017M   23016.51479692  .00037605  00000-0  23654-2 0  9999,2 51779  53.2144  93.4911 0001728  63.9442 296.1728 15.08885096 49236,6917.743,95.435,540.803,538.4119999999999,0.0
51779.0,STARLINK-3611,PAYLOAD,2023-01-16 21:53:37,15.08853563,0.0001861,53.2132,91.7059,73.7654,286.3542,0.00033084,4.983e-05,0.0,0 STARLINK-3611,1 51779U 22017M   23016.91223796  .00004983  00000-0  33084-3 0  9997,2 51779  53.2132  91.7059 0001861  73.7654 286.3542 15.08853563 50780,6917.839,95.437,540.991,538.4169999999999,0.0
51779.0,STARLINK-3611,PAYLOAD,2023-01-17 05:50:33,15.088154,0.0001438,53.2144,90.2195,86.2034,273.9123,-0.00038244,-6.365e-05,0.0,0 STARLINK-3611,1 51779U 22017M   23017.24344353 -.00006365  00000-0 -38244-3 0  9998,2 51779  53.2144  90.2195 0001438  86.2034 273.9123 15.08815400 50830,6917.956,95.439,540.815,538.826,0.0
51779.0,STARLINK-3611,PAYLOAD,2023-01-18 10:27:30,15.08871861,0.0001453999999999,53.2144,84.8673,83.6154,276.5004,0.002371,0.00037682,0.0,0 STARLINK-3611,1 51779U 22017M   23018.43577130  .00037682  00000-0  23710-2 0  9996,2 51779  53.2144  84.8673 0001454  83.6154 276.5004 15.08871861 51013,6917.783,95.436,540.654,538.6419999999999,0.0
51779.0,STARLINK-3611,PAYLOAD,2023-01-18 12:02:53,15.08877062,0.0001496999999999,53.2144,84.5694,86.4934,273.6229,0.0024176,0.00038437,0.0,0 STARLINK-3611,1 51779U 22017M   23018.50200953  .00038437  00000-0  24176-2 0  9996,2 51779  53.2144  84.5694 0001497  86.4934 273.6229 15.08877062 49537,6917.767,95.435,540.668,538.597,0.0
51779.0,STARLINK-3611,PAYLOAD,2023-01-18 21:35:12,15.08864218,0.0001771,53.2162,82.786,83.2549,276.8645,0.00096513,0.00015116,0.0,0 STARLINK-3611,1 51779U 22017M   23018.89944722  .00015116  00000-0  96513-3 0  9991,2 51779  53.2162  82.7860 0001771  83.2549 276.8645 15.08864218 51083,6917.806,95.436,540.8969999999999,538.446,0.0
51779.0,STARLINK-3611,PAYLOAD,2023-01-19 03:56:44,15.08862205,0.0001625,53.2145,81.5956,88.7342,271.3836,0.00073643,0.00011459,0.0,0 STARLINK-3611,1 51779U 22017M   23019.16440571  .00011459  00000-0  73643-3 0  9990,2 51779  53.2145  81.5956 0001625  88.7342 271.3836 15.08862205 51127,6917.813,95.436,540.802,538.553,0.0
51779.0,STARLINK-3611,PAYLOAD,2023-01-19 10:18:17,15.08861682,0.0001535,53.2143,80.4063,92.3683,267.7484,0.0016401,0.00025926,0.0,0 STARLINK-3611,1 51779U 22017M   23019.42936370  .00025926  00000-0  16401-2 0  9998,2 51779  53.2143  80.4063 0001535  92.3683 267.7484 15.08861682 49674,6917.814,95.436,540.741,538.617,0.0
51779.0,STARLINK-3611,PAYLOAD,2023-01-19 21:25:58,15.08860217,0.0001489,53.2155,78.3244,96.0301,264.0861,0.001389,0.00021899,0.0,0 STARLINK-3611,1 51779U 22017M   23019.89304306  .00021899  00000-0  13890-2 0  9991,2 51779  53.2155  78.3244 0001489  96.0301 264.0861 15.08860217 51237,6917.819,95.436,540.714,538.654,0.0
51779.0,STARLINK-3611,PAYLOAD,2023-01-20 10:09:04,15.08843417,0.0001359,53.2156,75.9452,111.5883,248.5254,0.0015817,0.00024977,0.0,0 STARLINK-3611,1 51779U 22017M   23020.42296553  .00024977  00000-0  15817-2 0  9997,2 51779  53.2156  75.9452 0001359 111.5883 248.5254 15.08843417 51311,6917.87,95.437,540.675,538.795,0.0
51779.0,STARLINK-3611,PAYLOAD,2023-01-21 03:38:19,15.08846014,0.0001306,53.2147,72.6752,95.9945,264.1196,0.0015817,0.00024979,0.0,0 STARLINK-3611,1 51779U 22017M   23021.15161190  .00024979  00000-0  15817-2 0  9998,2 51779  53.2147  72.6752 0001306  95.9945 264.1196 15.08846014 51421,6917.861999999999,95.437,540.63,538.8240000000001,0.0
51779.0,STARLINK-3611,PAYLOAD,2023-01-21 09:59:51,15.08845415,0.0001406,53.2156,71.4851,101.4387,258.6763,0.0014374,0.00022666,0.0,0 STARLINK-3611,1 51779U 22017M   23021.41657188  .00022666  00000-0  14374-2 0  9992,2 51779  53.2156  71.4851 0001406 101.4387 258.6763 15.08845415 51468,6917.8640000000005,95.437,540.701,538.756,0.0
51779.0,STARLINK-3611,PAYLOAD,2023-01-22 03:29:06,15.08856275,0.000155,53.2153,68.2123,115.9302,244.185,0.0016059999999999,0.00025375,0.0,0 STARLINK-3611,1 51779U 22017M   23022.14521248  .00025375  00000-0  16060-2 0  9994,2 51779  53.2153  68.2123 0001550 115.9302 244.1850 15.08856275 51573,6917.831,95.437,540.768,538.623,0.0
51779.0,STARLINK-3611,PAYLOAD,2023-01-22 19:22:57,15.08831994,9.79e-05,53.2155,65.2382,122.6734,237.4352,-0.00024867,-4.242e-05,0.0,0 STARLINK-3611,1 51779U 22017M   23022.80761088 -.00004242  00000-0 -24867-3 0  9992,2 51779  53.2155  65.2382 0000979 122.6734 237.4352 15.08831994 51671,6917.905,95.438,540.447,539.0930000000001,0.0
51779.0,STARLINK-3611,PAYLOAD,2023-01-23 19:13:44,15.08843565,0.0001175,53.2149,60.7802,111.2197,248.8921,0.00068033,0.00010557,0.0,0 STARLINK-3611,1 51779U 22017M   23023.80121499  .00010557  00000-0  68033-3 0  9996,2 51779  53.2149  60.7802 0001175 111.2197 248.8921 15.08843565 51829,6917.869000000001,95.437,540.547,538.922,0.0
51779.0,STARLINK-3611,PAYLOAD,2023-01-24 06:21:27,15.08836753,0.0001032,53.214,58.6979,110.3435,249.7668,0.00023765,3.496e-05,0.0,0 STARLINK-3611,1 51779U 22017M   23024.26489735  .00003496  00000-0  23765-3 0  9994,2 51779  53.2140  58.6979 0001032 110.3435 249.7668 15.08836753 51894,6917.89,95.438,540.469,539.0409999999999,0.0
51779.0,STARLINK-3611,PAYLOAD,2023-01-25 06:12:14,15.0883463,0.0001375999999999,53.2166,54.2371,98.4337,261.6812,0.00011838,1.596e-05,0.0,0 STARLINK-3611,1 51779U 22017M   23025.25850260  .00001596  00000-0  11838-3 0  9996,2 51779  53.2166  54.2371 0001376  98.4337 261.6812 15.08834630 52042,6917.897,95.438,540.714,538.81,0.0
51779.0,STARLINK-3611,PAYLOAD,2023-01-25 09:23:00,15.08838334,0.0001386999999999,53.216,53.6417,93.7858,266.3292,0.00015396,2.163e-05,0.0,0 STARLINK-3611,1 51779U 22017M   23025.39098209  .00002163  00000-0  15396-3 0  9992,2 51779  53.2160  53.6417 0001387  93.7858 266.3292 15.08838334 50573,6917.885,95.438,540.71,538.7909999999999,0.0
51779.0,STARLINK-3611,PAYLOAD,2023-01-25 18:55:19,15.08839089,0.0001324,53.215,51.8562,84.1372,275.9771,0.00014694,2.051e-05,0.0,0 STARLINK-3611,1 51779U 22017M   23025.78842277  .00002051  00000-0  14694-3 0  9993,2 51779  53.2150  51.8562 0001324  84.1372 275.9771 15.08839089 50632,6917.883000000001,95.438,540.664,538.832,0.0
51779.0,STARLINK-3611,PAYLOAD,2023-01-26 07:38:24,15.08848253,0.000127,53.2145,49.4771,82.5586,277.555,0.00028789,4.298e-05,0.0,0 STARLINK-3611,1 51779U 22017M   23026.31833989  .00004298  00000-0  28789-3 0  9998,2 51779  53.2145  49.4771 0001270  82.5586 277.5550 15.08848253 52201,6917.855,95.437,540.599,538.842,0.0
